HULIANWANG DIGUI-144    
1 67442U 26007H   26037.81155119  .00000006  00000+0  15074-3 0  9992
2 67442  50.0049 198.6500 0004373 353.8536   6.2302 13.76013830  3369
HULIANWANG DIGUI-145    
1 67443U 26007J   26037.95317027  .00000029  00000+0  17391-3 0  9995
2 67443  50.0081 198.0715 0000807 325.1640  34.9200 13.75975904  3389
CZ-8A R/B               
1 67444U 26007K   26037.93699507 -.00000030  00000+0  63517-4 0  9995
2 67444  50.0085 193.9413 0092214 166.3656 193.9774 14.13551739  3435
STARLINK-36542          
1 67445U 26008A   26038.16668981 -.00313706  00000+0 -55295-2 0  9995
2 67445  43.0003  19.3215 0000616 244.0551 145.2736 15.50727803  4890
STARLINK-36539          
1 67446U 26008B   26038.16668981 -.01972515  00000+0 -34401-1 0  9991
2 67446  42.9998  19.2305 0001178 270.8573 155.4106 15.53016109  4893
STARLINK-36440          
1 67447U 26008C   26038.16668981 -.02075437  00000+0 -27041-1 0  9992
2 67447  43.0005  18.9305 0000858 260.8061 286.8748 15.61459432  4896
STARLINK-36423          
1 67448U 26008D   26038.16668981  .00089246  00000+0  15132-2 0  9991
2 67448  43.0001  19.4363 0001591 251.2704  91.1396 15.50514659  4893
STARLINK-36519          
1 67449U 26008E   26038.16668981 -.02083278  00000+0 -29573-1 0  9998
2 67449  43.0002  19.0015 0000755 269.8419 248.7749 15.58695368  4891
STARLINK-36525          
1 67450U 26008F   26038.16668981 -.00166443  00000+0 -28858-2 0  9990
2 67450  43.0000  19.3063 0001355 257.4597 137.4411 15.50638512  4894
STARLINK-36511          
1 67451U 26008G   26038.16668981 -.00062250  00000+0 -10635-2 0  9996
2 67451  42.9998  19.4079 0001291 268.1691  85.1748 15.50584615  4896
STARLINK-36524          
1 67452U 26008H   26038.16668981 -.01325071  00000+0 -24221-1 0  9996
2 67452  43.0003  19.2591 0001349 260.4391 153.6570 15.51501208  4891
STARLINK-36518          
1 67453U 26008J   26038.16668981 -.02061355  00000+0 -34258-1 0  9991
2 67453  42.9994  18.7713 0000756 267.0445 339.8288 15.54471999  4916
